SCD 1                   
1 22490U 93009B   25172.70727777  .00000363  00000+0  48724-4 0  9999
2 22490  24.9697 272.8889 0041889 283.5502 210.1503 14.45865251709284
TECHSAT 1B (GO-32)      
1 25397U 98043D   25172.84486312  .00000039  00000+0  36988-4 0  9992
2 25397  98.9707 152.2202 0001743 135.9692 224.1625 14.24317882400255
SCD 2                   
1 25504U 98060A   25172.19696126  .00000349  00000+0  46636-4 0  9990
2 25504  24.9940 138.0007 0016560 268.8757 114.0095 14.45303063408041
DLR-TUBSAT              
1 25757U 99029B   25172.91016622  .00000074  00000+0  29941-4 0  9998
2 25757  98.6357 152.2415 0014428  10.7753 349.3747 14.52275728381055
TERRA                   
1 25994U 99068A   25172.83263449  .00000303  00000+0  71390-4 0  9996
2 25994  97.9976 230.6376 0000926 308.8159 162.5273 14.60715504357112
MAROC-TUBSAT            
1 27004U 01056D   25172.43638308 -.00000013  00000+0  37744-4 0  9990
2 27004  99.7787 337.9455 0019642 349.4133  36.9906 13.70243138176781
AQUA                    
1 27424U 02022A   25172.85681932  .00000611  00000+0  13367-3 0  9994
2 27424  98.3781 131.2661 0001872  63.8628 323.2245 14.61313859230678
IRS-P6 (RESOURCESAT-1)  
1 28051U 03046A   25172.81362964  .00000067  00000+0  36521-4 0  9998
2 28051  98.2402 221.0096 0063819 344.1779 145.1169 14.35983745128833
SHIYAN-1 (SY-1)         
1 28220U 04012A   25172.62076295  .00006959  00000+0  29612-3 0  9996
2 28220  97.9165 224.3771 0007018 190.4679 169.6411 15.23334291156026
AURA                    
1 28376U 04026A   25172.86108821  .00000629  00000+0  13956-3 0  9992
2 28376  98.2946 122.6350 0001562  70.2295 289.9074 14.60454738113640
IRS-P5 (CARTOSAT-1)     
1 28649U 05017A   25172.34511808  .00000979  00000+0  10777-3 0  9998
2 28649  97.5662 206.3451 0001991 125.4242 234.7162 14.89691262 90076
SINAH 1                 
1 28893U 05043D   25172.58244388  .00000240  00000+0  55389-4 0  9990
2 28893  98.2388 300.9547 0013786 330.5494  29.4930 14.63727948 47763
EROS B                  
1 29079U 06014A   25172.81528729  .00026939  00000+0  66829-3 0  9999
2 29079  97.3464 286.0001 0003938  24.2348 335.9083 15.40332896 63871
RESURS-DK 1             
1 29228U 06021A   25172.78081626  .00001474  00000+0  94383-4 0  9993
2 29228  69.9307 190.9374 0004608 198.1510 161.9491 15.11007896 48118
