[
  {
    "OBJECT_NAME": "SCD 1",
    "OBJECT_ID": "1993-009B",
    "EPOCH": "2025-06-21T16:58:28.799328",
    "MEAN_MOTION": 14.45865251,
    "ECCENTRICITY": 0.0041889,
    "INCLINATION": 24.9697,
    "RA_OF_ASC_NODE": 272.8889,
    "ARG_OF_PERICENTER": 283.5502,
    "MEAN_ANOMALY": 210.1503,
    "EPHEMERIS_TYPE": 0,
    "CLASSIFICATION_TYPE": "U",
    "NORAD_CAT_ID": 22490,
    "ELEMENT_SET_NO": 999,
    "REV_AT_EPOCH": 70928,
    "BSTAR": 4.8724e-05,
    "MEAN_MOTION_DOT": 3.63e-06,
    "MEAN_MOTION_DDOT": 0
  },
  {
    "OBJECT_NAME": "TECHSAT 1B (GO-32)",
    "OBJECT_ID": "1998-043D",
    "EPOCH": "2025-06-21T20:16:36.173568",
    "MEAN_MOTION": 14.24317882,
    "ECCENTRICITY": 0.0001743,
    "INCLINATION": 98.9707,
    "RA_OF_ASC_NODE": 152.2202,
    "ARG_OF_PERICENTER": 135.9692,
    "MEAN_ANOMALY": 224.1625,
    "EPHEMERIS_TYPE": 0,
    "CLASSIFICATION_TYPE": "U",
    "NORAD_CAT_ID": 25397,
    "ELEMENT_SET_NO": 999,
    "REV_AT_EPOCH": 40025,
    "BSTAR": 3.6988e-05,
    "MEAN_MOTION_DOT": 3.9e-07,
    "MEAN_MOTION_DDOT": 0
  },
  {
    "OBJECT_NAME": "SCD 2",
    "OBJECT_ID": "1998-060A",
    "EPOCH": "2025-06-21T04:43:37.452864",
    "MEAN_MOTION": 14.45303063,
    "ECCENTRICITY": 0.001656,
    "INCLINATION": 24.994,
    "RA_OF_ASC_NODE": 138.0007,
    "ARG_OF_PERICENTER": 268.8757,
    "MEAN_ANOMALY": 114.0095,
    "EPHEMERIS_TYPE": 0,
    "CLASSIFICATION_TYPE": "U",
    "NORAD_CAT_ID": 25504,
    "ELEMENT_SET_NO": 999,
    "REV_AT_EPOCH": 40804,
    "BSTAR": 4.6636e-05,
    "MEAN_MOTION_DOT": 3.49e-06,
    "MEAN_MOTION_DDOT": 0
  },
  {
    "OBJECT_NAME": "DLR-TUBSAT",
    "OBJECT_ID": "1999-029B",
    "EPOCH": "2025-06-21T21:50:38.361408",
    "MEAN_MOTION": 14.52275728,
    "ECCENTRICITY": 0.0014428,
    "INCLINATION": 98.6357,
    "RA_OF_ASC_NODE": 152.2415,
    "ARG_OF_PERICENTER": 10.7753,
    "MEAN_ANOMALY": 349.3747,
    "EPHEMERIS_TYPE": 0,
    "CLASSIFICATION_TYPE": "U",
    "NORAD_CAT_ID": 25757,
    "ELEMENT_SET_NO": 999,
    "REV_AT_EPOCH": 38105,
    "BSTAR": 2.9941e-05,
    "MEAN_MOTION_DOT": 7.4e-07,
    "MEAN_MOTION_DDOT": 0
  },
  {
    "OBJECT_NAME": "TERRA",
    "OBJECT_ID": "1999-068A",
    "EPOCH": "2025-06-21T19:58:59.619936",
    "MEAN_MOTION": 14.60715504,
    "ECCENTRICITY": 9.26e-05,
    "INCLINATION": 97.9976,
    "RA_OF_ASC_NODE": 230.6376,
    "ARG_OF_PERICENTER": 308.8159,
    "MEAN_ANOMALY": 162.5273,
    "EPHEMERIS_TYPE": 0,
    "CLASSIFICATION_TYPE": "U",
    "NORAD_CAT_ID": 25994,
    "ELEMENT_SET_NO": 999,
    "REV_AT_EPOCH": 35711,
    "BSTAR": 7.139e-05,
    "MEAN_MOTION_DOT": 3.03e-06,
    "MEAN_MOTION_DDOT": 0
  },
  {
    "OBJECT_NAME": "MAROC-TUBSAT",
    "OBJECT_ID": "2001-056D",
    "EPOCH": "2025-06-21T10:28:23.498112",
    "MEAN_MOTION": 13.70243138,
    "ECCENTRICITY": 0.0019642,
    "INCLINATION": 99.7787,
    "RA_OF_ASC_NODE": 337.9455,
    "ARG_OF_PERICENTER": 349.4133,
    "MEAN_ANOMALY": 36.9906,
    "EPHEMERIS_TYPE": 0,
    "CLASSIFICATION_TYPE": "U",
    "NORAD_CAT_ID": 27004,
    "ELEMENT_SET_NO": 999,
    "REV_AT_EPOCH": 17678,
    "BSTAR": 3.7744e-05,
    "MEAN_MOTION_DOT": -1.3e-07,
    "MEAN_MOTION_DDOT": 0
  },
  {
    "OBJECT_NAME": "AQUA",
    "OBJECT_ID": "2002-022A",
    "EPOCH": "2025-06-21T20:33:49.189248",
    "MEAN_MOTION": 14.61313859,
    "ECCENTRICITY": 0.0001872,
    "INCLINATION": 98.3781,
    "RA_OF_ASC_NODE": 131.2661,
    "ARG_OF_PERICENTER": 63.8628,
    "MEAN_ANOMALY": 323.2245,
    "EPHEMERIS_TYPE": 0,
    "CLASSIFICATION_TYPE": "U",
    "NORAD_CAT_ID": 27424,
    "ELEMENT_SET_NO": 999,
    "REV_AT_EPOCH": 23067,
    "BSTAR": 0.00013367,
    "MEAN_MOTION_DOT": 6.11e-06,
    "MEAN_MOTION_DDOT": 0
  },
  {
    "OBJECT_NAME": "IRS-P6 (RESOURCESAT-1)",
    "OBJECT_ID": "2003-046A",
    "EPOCH": "2025-06-21T19:31:37.600896",
    "MEAN_MOTION": 14.35983745,
    "ECCENTRICITY": 0.0063819,
    "INCLINATION": 98.2402,
    "RA_OF_ASC_NODE": 221.0096,
    "ARG_OF_PERICENTER": 344.1779,
    "MEAN_ANOMALY": 145.1169,
    "EPHEMERIS_TYPE": 0,
    "CLASSIFICATION_TYPE": "U",
    "NORAD_CAT_ID": 28051,
    "ELEMENT_SET_NO": 999,
    "REV_AT_EPOCH": 12883,
    "BSTAR": 3.6521e-05,
    "MEAN_MOTION_DOT": 6.7e-07,
    "MEAN_MOTION_DDOT": 0
  },
  {
    "OBJECT_NAME": "SHIYAN-1 (SY-1)",
    "OBJECT_ID": "2004-012A",
    "EPOCH": "2025-06-21T14:53:53.918880",
    "MEAN_MOTION": 15.23334291,
    "ECCENTRICITY": 0.0007018,
    "INCLINATION": 97.9165,
    "RA_OF_ASC_NODE": 224.3771,
    "ARG_OF_PERICENTER": 190.4679,
    "MEAN_ANOMALY": 169.6411,
    "EPHEMERIS_TYPE": 0,
    "CLASSIFICATION_TYPE": "U",
    "NORAD_CAT_ID": 28220,
    "ELEMENT_SET_NO": 999,
    "REV_AT_EPOCH": 15602,
    "BSTAR": 0.00029612,
    "MEAN_MOTION_DOT": 6.959e-05,
    "MEAN_MOTION_DDOT": 0
  },
  {
    "OBJECT_NAME": "AURA",
    "OBJECT_ID": "2004-026A",
    "EPOCH": "2025-06-21T20:39:58.021344",
    "MEAN_MOTION": 14.60454738,
    "ECCENTRICITY": 0.0001562,
    "INCLINATION": 98.2946,
    "RA_OF_ASC_NODE": 122.635,
    "ARG_OF_PERICENTER": 70.2295,
    "MEAN_ANOMALY": 289.9074,
    "EPHEMERIS_TYPE": 0,
    "CLASSIFICATION_TYPE": "U",
    "NORAD_CAT_ID": 28376,
    "ELEMENT_SET_NO": 999,
    "REV_AT_EPOCH": 11364,
    "BSTAR": 0.00013956,
    "MEAN_MOTION_DOT": 6.29e-06,
    "MEAN_MOTION_DDOT": 0
  },
  {
    "OBJECT_NAME": "IRS-P5 (CARTOSAT-1)",
    "OBJECT_ID": "2005-017A",
    "EPOCH": "2025-06-21T08:16:58.202112",
    "MEAN_MOTION": 14.89691262,
    "ECCENTRICITY": 0.0001991,
    "INCLINATION": 97.5662,
    "RA_OF_ASC_NODE": 206.3451,
    "ARG_OF_PERICENTER": 125.4242,
    "MEAN_ANOMALY": 234.7162,
    "EPHEMERIS_TYPE": 0,
    "CLASSIFICATION_TYPE": "U",
    "NORAD_CAT_ID": 28649,
    "ELEMENT_SET_NO": 999,
    "REV_AT_EPOCH": 9007,
    "BSTAR": 0.00010777,
    "MEAN_MOTION_DOT": 9.79e-06,
    "MEAN_MOTION_DDOT": 0
  },
  {
    "OBJECT_NAME": "SINAH 1",
    "OBJECT_ID": "2005-043D",
    "EPOCH": "2025-06-21T13:58:43.151232",
    "MEAN_MOTION": 14.63727948,
    "ECCENTRICITY": 0.0013786,
    "INCLINATION": 98.2388,
    "RA_OF_ASC_NODE": 300.9547,
    "ARG_OF_PERICENTER": 330.5494,
    "MEAN_ANOMALY": 29.493,
    "EPHEMERIS_TYPE": 0,
    "CLASSIFICATION_TYPE": "U",
    "NORAD_CAT_ID": 28893,
    "ELEMENT_SET_NO": 999,
    "REV_AT_EPOCH": 4776,
    "BSTAR": 5.5389e-05,
    "MEAN_MOTION_DOT": 2.4e-06,
    "MEAN_MOTION_DDOT": 0
  },
  {
    "OBJECT_NAME": "EROS B",
    "OBJECT_ID": "2006-014A",
    "EPOCH": "2025-06-21T19:34:00.821856",
    "MEAN_MOTION": 15.40332896,
    "ECCENTRICITY": 0.0003938,
    "INCLINATION": 97.3464,
    "RA_OF_ASC_NODE": 286.0001,
    "ARG_OF_PERICENTER": 24.2348,
    "MEAN_ANOMALY": 335.9083,
    "EPHEMERIS_TYPE": 0,
    "CLASSIFICATION_TYPE": "U",
    "NORAD_CAT_ID": 29079,
    "ELEMENT_SET_NO": 999,
    "REV_AT_EPOCH": 6387,
    "BSTAR": 0.00066829,
    "MEAN_MOTION_DOT": 0.00026939,
    "MEAN_MOTION_DDOT": 0
  },
  {
    "OBJECT_NAME": "RESURS-DK 1",
    "OBJECT_ID": "2006-021A",
    "EPOCH": "2025-06-21T18:44:22.524864",
    "MEAN_MOTION": 15.11007896,
    "ECCENTRICITY": 0.0004608,
    "INCLINATION": 69.9307,
    "RA_OF_ASC_NODE": 190.9374,
    "ARG_OF_PERICENTER": 198.151,
    "MEAN_ANOMALY": 161.9491,
    "EPHEMERIS_TYPE": 0,
    "CLASSIFICATION_TYPE": "U",
    "NORAD_CAT_ID": 29228,
    "ELEMENT_SET_NO": 999,
    "REV_AT_EPOCH": 4811,
    "BSTAR": 9.4383e-05,
    "MEAN_MOTION_DOT": 1.474e-05,
    "MEAN_MOTION_DDOT": 0
  }
]